HELIOS 2A               
1 28492U 04049A   22331.21244044  .00000863  00000+0  87654-4 0  9994
2 28492  98.2530 282.0132 0012765 268.6490  91.3287 14.93615296959412
SPIRALE A               
1 33751U 09008C   22330.61546870  .00000134  00000+0  41252-3 0  9997
2 33751   2.0631  99.7379 5457050 193.9158 140.9083  4.58889185202262
SPIRALE B               
1 33752U 09008D   22331.12103381  .00001552  00000+0  68032-3 0  9991
2 33752   2.2142  29.7039 6838377 324.4342   5.1763  2.83446140129733
SAPPHIRE                
1 39088U 13009C   22331.30504177  .00000047  00000+0  31931-4 0  9990
2 39088  98.4173 162.9507 0011927 147.9336 212.2577 14.34345484510489
